322P/SOHO,e,11.4609,351.4343,56.9854,2.508468,0.2480797,0.97996973,0.0000,08/21.1188/2023,2000,g 19.0,4.0
# From MPEC 2023-XP6
323P/SOHO,e,5.3272,324.2806,353.1250,2.583890,0.2372974,0.98461336,0.0000,03/14.2959/2025,2000,g 20.0,4.0
# From MPEC 2024-F21
323P-B/SOHO,e,5.4594,323.4622,353.9667,2.889331,0.2006819,0.98611464,0.0000,12/16.2822/2025,2000,g 26.0,4.0
# From MPEC 2024-F21
323P-C/SOHO,e,5.3402,324.1989,353.2065,2.610834,0.2336335,0.98476181,0.0000,04/07.1033/2025,2000,g 27.0,4.0
# From MPEC 2021-W31
324P/LaSagra,e,21.3991,270.5713,57.5043,3.096418,0.1808901,0.15297752,229.5828,10/24.0/2024,2000,g 13.0,4.0
# From MPEC 2024-LE0
325P/Yang-Gao,e,16.8482,256.8566,344.9359,3.546916,0.1475461,0.58856709,139.1143,10/24.0/2024,2000,g 14.0,4.0
# From MPEC 2024-LE0
326P/Hill,e,2.4726,99.7614,278.4650,4.072222,0.1199380,0.32045105,35.9014,10/24.0/2024,2000,g 13.5,4.0
# From MPEC 2024-M41
327P/VanNess,e,36.2402,173.9950,185.0433,3.562686,0.1465675,0.56274721,114.7397,10/24.0/2024,2000,g 16.0,4.0
# From MPEC 2024-U18
328P/LONEOS-Tucker,e,17.6726,341.6047,30.6642,4.189893,0.1149211,0.55287513,10.1181,10/24.0/2024,2000,g 14.5,4.0
# From MPC101101
329P/LINEAR-Catalina,e,21.7183,87.6874,343.5794,5.183793,0.0835089,0.67887590,270.9401,10/24.0/2024,2000,g 13.5,4.0
# From MPEC 2023-J29
330P/Catalina,e,15.7352,293.0812,188.8213,6.616583,0.0579100,0.55023392,172.4527,10/24.0/2024,2000,g 12.0,4.0
# From MPEC 2024-Q20
331P/Gibbs,e,9.7401,216.7481,185.2917,3.003670,0.1893328,0.04151893,279.5083,10/24.0/2024,2000,g 12.0,4.0
# From MPEC 2016-K18
332P/Ikeya-Murakami,e,9.3839,3.7561,152.2887,3.086534,0.1817596,0.48961293,211.3383,10/24.0/2024,2000,g 18.0,4.0
# From MPEC 2016-K18
332P-A/Ikeya-Murakami,e,9.3843,152.3109,3.7344,3.086524,0.1817605,0.48961884,211.3374,10/24.0/2024,2000,g  9.0,4.0
# From MPEC 2016-EI8
332P-B/Ikeya-Murakami,e,9.3805,3.8028,152.3711,3.082329,0.1821317,0.48970701,359.9699,03/17.0/2016,2000,g 19.0,4.0
# From MPEC 2016-K18
332P-C/Ikeya-Murakami,e,9.3833,152.3022,3.7349,3.086490,0.1817635,0.48962440,211.3551,10/24.0/2024,2000,g 16.5,4.0
# From MPEC 2016-ED0
332P-D/Ikeya-Murakami,e,9.3761,3.7923,152.4393,3.081138,0.1822373,0.48977814,359.9486,03/17.0/2016,2000,g 19.0,4.0
# From MPEC 2016-ED0
332P-E/Ikeya-Murakami,e,9.3774,3.8228,152.2825,3.079877,0.1823493,0.48922008,359.9889,03/17.0/2016,2000,g 21.0,4.0
# From MPEC 2016-ED0
332P-F/Ikeya-Murakami,e,9.5293,3.4757,152.8203,3.163214,0.1751908,0.49918860,359.8501,03/17.0/2016,2000,g 21.0,4.0
# From MPEC 2016-ED0
332P-G/Ikeya-Murakami,e,9.2523,3.6955,154.4000,3.050519,0.1849880,0.49200362,359.9006,03/19.0/2016,2000,g 19.0,4.0
# From MPC100285
332P-H/Ikeya-Murakami,e,9.3838,152.3028,3.7346,3.086672,0.1817475,0.48966015,211.2712,10/24.0/2024,2000,g 19.0,4.0
# From MPEC 2016-ED0
332P-I/Ikeya-Murakami,e,9.3791,3.8048,152.3297,3.081767,0.1821815,0.48955490,359.9360,03/17.0/2016,2000,g 20.5,2.0
# From MPEC 2016-EI8
332P-J/Ikeya-Murakami,e,9.4296,3.6729,152.7712,3.115165,0.1792596,0.49429435,359.8613,03/17.0/2016,2000,g 20.5,2.0
# From MPEC 2024-U18
333P/LINEAR,e,132.0217,115.7056,26.0178,4.220673,0.1136662,0.73631203,355.8740,10/24.0/2024,2000,g 15.0,4.0
# From MPEC 2023-J29
334P/NEAT,e,20.3699,90.4303,90.0400,6.827389,0.0552487,0.35144718,149.1521,10/24.0/2024,2000,g 10.5,4.0
# From MPEC 2023-M14
335P/Gibbs,e,7.2955,330.8044,162.3054,3.577486,0.1456589,0.54666592,117.0752,10/24.0/2024,2000,g 16.8,4.0
# From MPC105244
336P/McNaught,e,17.8357,298.2008,308.6231,5.037700,0.0871677,0.44453141,246.6079,10/24.0/2024,2000,g 13.5,4.0
# From MPEC 2024-A43
337P/WISE,e,15.9486,103.8162,163.7090,3.301081,0.1643311,0.49903390,138.3507,10/24.0/2024,2000,g 17.0,4.0
# From MPEC 2024-U18
338P/McNaught,e,25.3838,9.7912,4.5963,3.894035,0.1282638,0.41246130,10.4803,10/24.0/2024,2000,g 12.0,4.0
# From MPC101101
339P/Gibbs,e,5.7334,27.4703,172.6830,3.699310,0.1385233,0.63565783,58.1906,10/24.0/2024,2000,g 17.0,4.0
# From MPC133426
340P/Boattini,e,2.0788,291.6609,36.0669,4.248129,0.1125661,0.28019653,325.1890,10/24.0/2024,2000,g 14.3,4.0
# From MPEC 2023-J29
341P/Gibbs,e,3.7964,29.9581,312.3496,4.286604,0.1110539,0.41528467,339.9351,10/24.0/2024,2000,g 12.5,4.0
# From MPC101101
342P/SOHO,e,11.6953,73.3237,27.6332,3.041039,0.1858536,0.98295608,0.0000,02/07.5820/2027,2000,g  9.0,4.0
# From MPEC 2024-PC5
343P/NEAT-LONEOS,e,5.5975,257.0556,137.6002,5.457522,0.0773056,0.58510869,218.0041,10/24.0/2024,2000,g 14.0,4.0
# From MPEC 2023-J29
344P/Read,e,3.4993,273.1008,140.5879,4.856476,0.0920921,0.42380447,267.5765,10/24.0/2024,2000,g 13.0,4.0
# From MPEC 2024-U18
345P/LINEAR,e,2.7281,154.5120,196.6823,4.031398,0.1217645,0.22126193,6.6193,10/24.0/2024,2000,g 12.0,4.0
# From MPEC 2022-K19
346P/Catalina,e,22.2189,102.4573,336.0397,4.469560,0.1043054,0.50391203,292.5998,10/24.0/2024,2000,g 14.0,4.0
# From MPEC 2024-RQ6
347P/PANSTARRS,e,11.7658,260.9910,98.2152,3.603060,0.1441109,0.38683615,66.6495,10/24.0/2024,2000,g 15.0,4.0
# From MPEC 2022-ED3
348P/PANSTARRS,e,17.7397,312.9207,135.7397,3.151806,0.1761428,0.30745046,173.2993,10/24.0/2024,2000,g 14.0,4.0
# From MPEC 2024-LE0
349P/Lemmon,e,5.4885,331.7446,255.7794,3.578480,0.1455983,0.29857328,21.8319,10/24.0/2024,2000,g 14.0,4.0
# From MPC111775
350P/McNaught,e,7.3638,65.2924,140.0375,4.081073,0.1195480,0.09455682,299.1044,10/24.0/2024,2000,g 14.0,4.0
# From MPC105244
351P/Wiegert-PANSTARRS,e,12.7746,352.6745,283.3055,4.440700,0.1053239,0.29473916,343.8490,10/24.0/2024,2000,g 12.5,4.0
# From MPEC 2023-J29
352P/Skiff,e,21.0097,28.0250,309.3998,6.653752,0.0574254,0.61645860,154.0516,10/24.0/2024,2000,g 13.2,4.0
# From MPEC 2020-AA5
353P/McNaught,e,28.4173,121.5182,230.4939,4.170689,0.1157157,0.46985985,288.7870,10/24.0/2024,2000,g 14.5,4.0
# From MPEC 2024-EF7
354P/LINEAR,e,5.2506,320.0673,132.8603,2.290066,0.2844016,0.12449212,106.9161,10/24.0/2024,2000,g 15.5,4.0
# From MPEC 2023-CD7
355P/LINEAR-NEAT,e,11.0462,51.4306,336.2933,3.468975,0.1525466,0.50809390,31.3730,10/24.0/2024,2000,g 15.5,2.0
# From MPEC 2022-F14
356P/WISE,e,9.6407,160.8011,226.1756,4.153584,0.1164312,0.35601532,290.5887,10/24.0/2024,2000,g 14.0,4.0
# From MPC114609
357P/Hill,e,6.3138,44.5771,1.4748,4.455588,0.1047964,0.43612568,244.6875,10/24.0/2024,2000,g 15.5,4.0
# From MPEC 2024-EF7
358P/PANSTARRS,e,11.0667,85.6667,299.4405,3.147192,0.1765302,0.23956432,61.6269,10/24.0/2024,2000,g 18.0,4.0
# From MPC110086
359P/LONEOS,e,10.2626,149.7606,200.2987,4.641677,0.0985580,0.32337188,258.0641,10/24.0/2024,2000,g 13.5,4.0
# From MPEC 2024-U18
360P/WISE,e,24.1095,2.1775,354.2840,3.696984,0.1386541,0.49913716,2.8056,10/24.0/2024,2000,g 19.5,6.0
# From MPEC 2023-CD7
361P/Spacewatch,e,13.9005,203.2465,219.0888,4.933244,0.0899508,0.43960340,206.9892,10/24.0/2024,2000,g 12.0,4.0
# From MPC114609
363P/Lemmon,e,5.3899,146.6328,340.8753,3.574595,0.1458357,0.51858717,357.0545,10/24.0/2024,2000,g 17.5,4.0
# From MPEC 2024-M41
364P/PANSTARRS,e,12.0362,46.0801,212.4287,2.894529,0.2001415,0.72046801,105.8505,10/24.0/2024,2000,g 17.0,2.0
# From MPC111775
365P/PANSTARRS,e,9.8501,86.6569,67.4200,3.156381,0.1757600,0.58149624,66.8912,10/24.0/2024,2000,g 17.0,4.0
# From MPC114610
366P/Spacewatch,e,8.8570,70.7228,153.0069,3.499348,0.1505647,0.34846020,345.1053,10/24.0/2024,2000,g 15.0,4.0
# From MPC112395
367P/Catalina,e,8.4596,58.6613,172.7023,3.510967,0.1498180,0.27998365,348.0751,10/24.0/2024,2000,g 17.5,2.0
# From MPC114610
368P/NEAT,e,15.4825,257.8569,118.9777,5.533623,0.0757164,0.62607650,168.8579,10/24.0/2024,2000,g 14.0,4.0
# From MPC114610
369P/Hill,e,10.3217,47.2943,13.2117,4.379273,0.1075477,0.55595091,236.2454,10/24.0/2024,2000,g 15.0,4.0
# From MPEC 2021-F20
370P/NEAT,e,19.4227,55.0823,356.7630,6.438454,0.0603298,0.61542758,140.2869,10/24.0/2024,2000,g 13.0,4.0
# From MPC114610
371P/LINEAR-Skiff,e,17.3853,67.2829,308.5706,4.180452,0.1153106,0.47679035,254.6354,10/24.0/2024,2000,g 16.0,4.0
# From MPEC 2020-K19
372P/McNaught,e,9.5061,27.5519,326.0122,4.511613,0.1028505,0.15154023,225.4650,10/24.0/2024,2000,g 13.5,4.0
# From MPEC 2021-F20
373P/Rinner,e,13.7702,231.9407,221.0879,3.798024,0.1331581,0.39373125,269.3330,10/24.0/2024,2000,g 14.5,4.0
# From MPC114610
374P/Larson,e,10.7631,7.8893,51.5407,4.971046,0.0889268,0.46376520,187.6206,10/24.0/2024,2000,g 14.0,4.0
# From MPEC 2021-F20
375P/Hill,e,17.3692,359.8680,119.4087,5.546186,0.0754592,0.66000818,160.8971,10/24.0/2024,2000,g 16.0,4.0
# From MPEC 2024-RQ6
376P/LONEOS,e,1.1662,312.8502,285.3993,5.756610,0.0713598,0.51376627,133.2116,10/24.0/2024,2000,g 12.5,4.0
# From MPEC 2022-N37
377P/Scotti,e,9.0263,226.0009,354.8712,6.696303,0.0568789,0.25117150,89.1661,10/24.0/2024,2000,g  9.5,4.0
# From MPEC 2024-TD8
378P/McNaught,e,19.1534,93.8004,193.3629,6.289826,0.0624807,0.46438492,92.2104,10/24.0/2024,2000,g 12.0,4.0
# From MPC115889
379P/Spacewatch,e,12.4374,30.4825,184.5234,3.486251,0.1514140,0.35015224,286.3368,10/24.0/2024,2000,g 15.0,4.0
# From MPEC 2023-C45
380P/PANSTARRS,e,8.0233,127.8971,87.8855,4.433277,0.1055885,0.33570440,213.7887,10/24.0/2024,2000,g 12.5,4.0
# From MPEC 2021-J28
381P/LINEAR-Spacewatch,e,28.3517,173.3040,173.8533,7.144358,0.0516130,0.68090616,95.7417,10/24.0/2024,2000,g 17.5,2.0
# From MPEC 2024-MB8
382P/Larson,e,8.2599,171.2508,162.1766,5.917306,0.0684728,0.26872933,73.8630,10/24.0/2024,2000,g  8.0,4.0
# From MPEC 2022-OB6
383P/Christensen,e,12.3194,207.8537,133.7450,3.548378,0.1474549,0.59864449,269.0924,10/24.0/2024,2000,g 18.0,4.0
# From MPEC 2024-U18
384P/Kowalski,e,7.2832,354.1982,37.7137,2.898528,0.1997274,0.61632894,6.9619,10/24.0/2024,2000,g 19.5,4.0
# From MPEC 2021-F20
385P/Hill,e,16.8253,357.0541,44.4308,4.288836,0.1109673,0.40205055,206.8263,10/24.0/2024,2000,g 13.0,4.0
# From MPEC 2021-L04
386P/PANSTARRS,e,15.2435,134.9158,353.0853,4.049853,0.1209331,0.41726614,184.5422,10/24.0/2024,2000,g 14.5,4.0
# From MPEC 2021-J28
387P/Boattini,e,8.9376,259.2396,162.8399,4.797201,0.0938042,0.73709849,175.6437,10/24.0/2024,2000,g 15.0,4.0
# From MPEC 2021-S45
